1 51074U 22002CU  22129.44870654  .00009320  00000-0  48104-3 0  9991
2 51074  97.5080 197.8725 0013395 223.4465 136.5713 15.16467394 17543
1 51074U 22002CU  22129.91059785  .00009200  00000-0  47477-3 0  9996
2 51074  97.5080 198.3298 0013422 221.7106 138.3104 15.16476384 17619
1 51074U 22002CU  22130.43847095  .00007667  00000-0  39624-3 0  9994
2 51074  97.5080 198.8523 0013460 219.7251 140.2997 15.16484074 17690
1 51074U 22002CU  22130.70240623  .00007889  00000-0  40752-3 0  9998
2 51074  97.5080 199.1136 0013491 218.8527 141.1737 15.16489432 17734
1 51074U 22002CU  22130.90035704  .00008523  00000-0  43988-3 0  9992
2 51074  97.5078 199.3094 0013527 218.2498 141.7776 15.16493702 17764
1 51074U 22002CU  22131.16429110  .00007650  00000-0  39520-3 0  9996
2 51074  97.5079 199.5708 0013552 217.2520 142.7774 15.16497020 17803
1 51074U 22002CU  22132.15403658  .00009588  00000-0  49402-3 0  9997
2 51074  97.5080 200.5506 0013683 213.9156 146.1203 15.16516542 17959
1 51074U 22002CU  22132.41796653  .00010205  00000-0  52546-3 0  9997
2 51074  97.5081 200.8119 0013711 212.9828 147.0551 15.16522265 17999
1 51074U 22002CU  22133.14376830  .00011654  00000-0  59915-3 0  9995
2 51074  97.5081 201.5303 0013783 210.5522 149.4909 15.16539820 18108
1 51074U 22002CU  22134.13348491  .00012035  00000-0  61812-3 0  9990
2 51074  97.5083 202.5101 0013882 207.0832 152.9678 15.16563517 18250
1 51074U 22002CU  22134.13348491  .00012035  00000-0  61812-3 0  9990
2 51074  97.5083 202.5101 0013882 207.0832 152.9678 15.16563517 18250
1 51074U 22002CU  22134.72730627  .00013006  00000-0  66730-3 0  9994
2 51074  97.5082 203.0978 0013922 204.7007 155.3561 15.16580611 18342
1 51074U 22002CU  22135.18916252  .00014131  00000-0  72430-3 0  9999
2 51074  97.5083 203.5551 0013973 203.0880 156.9726 15.16595340 18415
1 51074U 22002CU  22135.45307869  .00014491  00000-0  74246-3 0  9993
2 51074  97.5081 203.8165 0013978 202.1118 157.9514 15.16602782 18455
1 51074U 22002CU  22135.91492833  .00015305  00000-0  78354-3 0  9999
2 51074  97.5080 204.2738 0013969 200.3472 159.7206 15.16617969 18527
1 51074U 22002CU  22136.44275167  .00012826  00000-0  65718-3 0  9992
2 51074  97.5078 204.7964 0014028 198.5361 161.5363 15.16630374 18601
1 51074U 22002CU  22136.44275167  .00012826  00000-0  65718-3 0  9992
2 51074  97.5078 204.7964 0014028 198.5361 161.5363 15.16630374 18601
1 51074U 22002CU  22137.43240488  .00016324  00000-0  83423-3 0  9990
2 51074  97.5071 205.7763 0014096 195.2938 164.7871 15.16664327 18751
1 51074U 22002CU  22137.43240488  .00016324  00000-0  83423-3 0  9990
2 51074  97.5071 205.7763 0014096 195.2938 164.7871 15.16664327 18751
1 51074U 22002CU  22138.42203756  .00017120  00000-0  87380-3 0  9998
2 51074  97.5068 206.7564 0014264 192.4311 167.6572 15.16696707 18902
1 51074U 22002CU  22139.14775416  .00018614  00000-0  94882-3 0  9999
2 51074  97.5065 207.4749 0014352 190.1306 169.9640 15.16723560 19011
1 51074U 22002CU  22139.41164842  .00018376  00000-0  93651-3 0  9992
2 51074  97.5062 207.7362 0014366 189.1502 170.9471 15.16731539 19056
1 51074U 22002CU  22140.46720740  .00019234  00000-0  97887-3 0  9993
2 51074  97.5060 208.7817 0014418 185.3536 174.7545 15.16771116 19210
1 51074U 22002CU  22140.46720740  .00019234  00000-0  97887-3 0  9993
2 51074  97.5060 208.7817 0014418 185.3536 174.7545 15.16771116 19210
1 51074U 22002CU  22141.19288765  .00021518  00000-0  10934-2 0  9995
2 51074  97.5063 209.5005 0014439 182.9600 177.1550 15.16802474 19326
1 51074U 22002CU  22141.45676855  .00020143  00000-0  10237-2 0  9994
2 51074  97.5064 209.7620 0014413 182.1326 177.9848 15.16809999 19362
1 51074U 22002CU  22141.72064725  .00019226  00000-0  97709-3 0  9991
2 51074  97.5064 210.0234 0014431 181.1111 179.0092 15.16819830 19403
1 51074U 22002CU  22141.91855532  .00019173  00000-0  97424-3 0  9991
2 51074  97.5064 210.2194 0014443 180.3823 179.7401 15.16826987 19439
1 51074U 22002CU  22142.18243130  .00017348  00000-0  88184-3 0  9991
2 51074  97.5066 210.4806 0014444 179.5130 180.6119 15.16835019 19472
1 51074U 22002CU  22142.71017730  .00019898  00000-0  10099-2 0  9996
2 51074  97.5065 211.0033 0014483 177.6631 182.4673 15.16858073 19557
1 51074U 22002CU  22143.43581771  .00015871  00000-0  80614-3 0  9995
2 51074  97.5066 211.7218 0014535 175.3346 184.8025 15.16879725 19662
1 51074U 22002CU  22143.43581771  .00015871  00000-0  80614-3 0  9995
2 51074  97.5066 211.7218 0014535 175.3346 184.8025 15.16879725 19662
1 51074U 22002CU  22143.76565038  .00016752  00000-0  85028-3 0  9992
2 51074  97.5066 212.0485 0014542 174.2896 185.8506 15.16892460 19710
1 51074U 22002CU  22144.42531011  .00013487  00000-0  68519-3 0  9998
2 51074  97.5067 212.7017 0014695 172.6068 187.5384 15.16907785 19812
1 51074U 22002CU  22144.75513616  .00014861  00000-0  75424-3 0  9995
2 51074  97.5067 213.0283 0014714 171.7006 188.4473 15.16920083 19865
1 51074U 22002CU  22144.75513616  .00014861  00000-0  75424-3 0  9995
2 51074  97.5067 213.0283 0014714 171.7006 188.4473 15.16920083 19865
1 51074U 22002CU  22145.41478389  .00013596  00000-0  69010-3 0  9994
2 51074  97.5066 213.6816 0014750 169.5025 190.6519 15.16936618 19966
1 51074U 22002CU  22145.74460412  .00016097  00000-0  81588-3 0  9991
2 51074  97.5067 214.0081 0014727 168.3275 191.8303 15.16949896 20018
1 51074U 22002CU  22146.14038580  .00014936  00000-0  75714-3 0  9997
2 51074  97.5067 214.4001 0014759 166.9592 193.2025 15.16960568 20077
1 51074U 22002CU  22146.14038580  .00014936  00000-0  75714-3 0  9997
2 51074  97.5067 214.4001 0014759 166.9592 193.2025 15.16960568 20077
1 51074U 22002CU  22147.45963883  .00011005  00000-0  55859-3 0  9997
2 51074  97.5075 215.7072 0014796 162.4565 197.7182 15.16991211 20274
1 51074U 22002CU  22147.45963883  .00011005  00000-0  55859-3 0  9997
2 51074  97.5075 215.7072 0014796 162.4565 197.7182 15.16991211 20274
1 51074U 22002CU  22147.72348613  .00011294  00000-0  57299-3 0  9995
2 51074  97.5073 215.9685 0014811 161.5637 198.6136 15.16998249 20314
1 51074U 22002CU  22148.18521579  .00013601  00000-0  68884-3 0  9996
2 51074  97.5074 216.4259 0014859 160.0806 200.1010 15.17012439 20388
1 51074U 22002CU  22148.71290168  .00014406  00000-0  72901-3 0  9991
2 51074  97.5072 216.9486 0014900 158.2840 201.9028 15.17028031 20469
1 51074U 22002CU  22148.71290168  .00014406  00000-0  72901-3 0  9991
2 51074  97.5072 216.9486 0014900 158.2840 201.9028 15.17028031 20469
1 51074U 22002CU  22149.43846301  .00009754  00000-0  49484-3 0  9997
2 51074  97.5071 217.6673 0014956 155.9728 204.2206 15.17040883 20579
1 51074U 22002CU  22149.76826095  .00009966  00000-0  50537-3 0  9997
2 51074  97.5070 217.9940 0014974 154.9132 205.2832 15.17049100 20629
1 51074U 22002CU  22149.76826095  .00009966  00000-0  50537-3 0  9997
2 51074  97.5070 217.9940 0014974 154.9132 205.2832 15.17049100 20629
1 51074U 22002CU  22150.42785250  .00009337  00000-0  47357-3 0  9997
2 51074  97.5067 218.6473 0015003 153.0046 207.1970 15.17061893 20720
1 51074U 22002CU  22150.69168785  .00008410  00000-0  42686-3 0  9995
2 51074  97.5066 218.9087 0015012 152.1983 208.0056 15.17066081 20766
1 51074U 22002CU  22151.41723108  .00007976  00000-0  40491-3 0  9990
2 51074  97.5064 219.6274 0015032 149.9862 210.2236 15.17077551 20873
1 51074U 22002CU  22151.61510562  .00008347  00000-0  42350-3 0  9999
2 51074  97.5064 219.8235 0015045 149.2522 210.9596 15.17081618 20901
1 51074U 22002CU  22152.47255554  .00008686  00000-0  44034-3 0  9998
2 51074  97.5063 220.6731 0015085 146.6330 213.5857 15.17097203 21034
1 51074U 22002CU  22152.47255554  .00008686  00000-0  44034-3 0  9998
2 51074  97.5063 220.6731 0015085 146.6330 213.5857 15.17097203 21034
1 51074U 22002CU  22153.46191155  .00006924  00000-0  35163-3 0  9990
2 51074  97.5062 221.6531 0015167 143.3931 216.8342 15.17111115 21184
1 51074U 22002CU  22154.18743297  .00006590  00000-0  33473-3 0  9991
2 51074  97.5059 222.3718 0015233 140.9461 219.2875 15.17121962 21291
1 51074U 22002CU  22154.18743297  .00006590  00000-0  33473-3 0  9991
2 51074  97.5059 222.3718 0015233 140.9461 219.2875 15.17121962 21291
1 51074U 22002CU  22154.64912600  .00006381  00000-0  32418-3 0  9994
2 51074  97.5060 222.8293 0015280 139.4317 220.8058 15.17128321 21366
1 51074U 22002CU  22155.44059570  .00005840  00000-0  29692-3 0  9990
2 51074  97.5057 223.6134 0015329 136.8888 223.3549 15.17137714 21485
1 51074U 22002CU  22155.44059570  .00005840  00000-0  29692-3 0  9990
2 51074  97.5057 223.6134 0015329 136.8888 223.3549 15.17137714 21485
1 51074U 22002CU  22156.42992617  .00005860  00000-0  29782-3 0  9999
2 51074  97.5057 224.5936 0015335 133.9638 226.2863 15.17149186 21637
1 51074U 22002CU  22157.08947546  .00006602  00000-0  33498-3 0  9997
2 51074  97.5057 225.2470 0015360 131.8833 228.3713 15.17158469 21732
1 51074U 22002CU  22157.41924893  .00006122  00000-0  31087-3 0  9993
2 51074  97.5057 225.5736 0015369 130.8503 229.4066 15.17161195 21780
1 51074U 22002CU  22157.61711238  .00006801  00000-0  34491-3 0  9998
2 51074  97.5058 225.7697 0015367 130.2541 230.0039 15.17165023 21819
1 51074U 22002CU  22158.14474641  .00007093  00000-0  35947-3 0  9992
2 51074  97.5057 226.2924 0015408 128.7159 231.5455 15.17172580 21892
1 51074U 22002CU  22158.14474641  .00007093  00000-0  35947-3 0  9992
2 51074  97.5057 226.2924 0015408 128.7159 231.5455 15.17172580 21892
1 51074U 22002CU  22158.67237759  .00007332  00000-0  37135-3 0  9994
2 51074  97.5058 226.8151 0015433 127.0483 233.2165 15.17180577 21972
1 51074U 22002CU  22159.13405186  .00007820  00000-0  39573-3 0  9997
2 51074  97.5059 227.2725 0015445 125.6274 234.6401 15.17189140 22042
1 51074U 22002CU  22159.66167677  .00007714  00000-0  39032-3 0  9997
2 51074  97.5061 227.7952 0015469 123.9624 236.3082 15.17198522 22125
